start=new Date('2021-09-18T00:00:00.000Z').valueOf();
sats=[{"MEAN_MOTION_DOT":"0.00001161","BSTAR":"0.00003613000000","FILE":"3118116","OBJECT_ID":"2020-012AQ","LAUNCH_DATE":"2020-02-17","APOAPSIS":"440.765","PERIOD":"93.375","RCS_SIZE":"LARGE","INCLINATION":"53.0559","DECAY_DATE":null,"NORAD_CAT_ID":"45216","TLE_LINE1":"1 45216U 20012AQ  21260.42718681  .00001161  00000-0  36130-4 0  9997","OBJECT_TYPE":"PAYLOAD","CLASSIFICATION_TYPE":"U","MEAN_MOTION":"15.42165797","COUNTRY_CODE":"US","TLE_LINE2":"2 45216  53.0559 158.6629 0001532  63.4223 296.6938 15.42165797 88708","REF_FRAME":"TEME","SITE":"AFETR","GP_ID":"184911155","CENTER_NAME":"EARTH","ARG_OF_PERICENTER":"63.4223","OBJECT_NAME":"STARLINK-1254","EPOCH":"2021-09-17T10:15:08.940384","TIME_SYSTEM":"UTC","RA_OF_ASC_NODE":"158.6629","MEAN_MOTION_DDOT":"0.0000000000000","EPHEMERIS_TYPE":"0","SEMIMAJOR_AXIS":"6817.856","REV_AT_EPOCH":"8870","MEAN_ELEMENT_THEORY":"SGP4","PERIAPSIS":"438.676","ELEMENT_SET_NO":"999","MEAN_ANOMALY":"296.6938","ECCENTRICITY":"0.00015320"},{"APOAPSIS":"548.606","PERIOD":"95.592","RCS_SIZE":"LARGE","INCLINATION":"53.0544","MEAN_MOTION_DOT":"0.00001416","OBJECT_ID":"2020-012AR","FILE":"3118116","BSTAR":"0.00011396000000","LAUNCH_DATE":"2020-02-17","CLASSIFICATION_TYPE":"U","MEAN_MOTION":"15.06401279","COUNTRY_CODE":"US","DECAY_DATE":null,"NORAD_CAT_ID":"45217","TLE_LINE1":"1 45217U 20012AR  21260.46267232  .00001416  00000-0  11396-3 0  9992","OBJECT_TYPE":"PAYLOAD","ARG_OF_PERICENTER":"74.7563","OBJECT_NAME":"STARLINK-1271","EPOCH":"2021-09-17T11:06:14.888448","RA_OF_ASC_NODE":"162.9516","TIME_SYSTEM":"UTC","TLE_LINE2":"2 45217  53.0544 162.9516 0002016  74.7563 285.3649 15.06401279 88809","REF_FRAME":"TEME","SITE":"AFETR","GP_ID":"184911406","CENTER_NAME":"EARTH","REV_AT_EPOCH":"8880","MEAN_ELEMENT_THEORY":"SGP4","PERIAPSIS":"545.813","ELEMENT_SET_NO":"999","MEAN_ANOMALY":"285.3649","ECCENTRICITY":"0.00020160","EPHEMERIS_TYPE":"0","MEAN_MOTION_DDOT":"0.0000000000000","SEMIMAJOR_AXIS":"6925.345"},{"COUNTRY_CODE":"US","MEAN_MOTION":"15.06388277","CLASSIFICATION_TYPE":"U","OBJECT_TYPE":"PAYLOAD","TLE_LINE1":"1 45219U 20012AT  21260.92526725  .00000856  00000-0  76411-4 0  9997","NORAD_CAT_ID":"45219","DECAY_DATE":null,"INCLINATION":"53.0540","RCS_SIZE":"LARGE","PERIOD":"95.593","APOAPSIS":"548.737","LAUNCH_DATE":"2020-02-17","OBJECT_ID":"2020-012AT","FILE":"3118116","BSTAR":"0.00007641100000","MEAN_MOTION_DOT":"0.00000856","MEAN_ANOMALY":"283.4819","ECCENTRICITY":"0.00021480","ELEMENT_SET_NO":"999","PERIAPSIS":"545.762","MEAN_ELEMENT_THEORY":"SGP4","REV_AT_EPOCH":"8916","SEMIMAJOR_AXIS":"6925.384","EPHEMERIS_TYPE":"0","MEAN_MOTION_DDOT":"0.0000000000000","RA_OF_ASC_NODE":"140.8749","TIME_SYSTEM":"UTC","EPOCH":"2021-09-17T22:12:23.090400","OBJECT_NAME":"STARLINK-1187","ARG_OF_PERICENTER":"76.6409","CENTER_NAME":"EARTH","GP_ID":"184910154","SITE":"AFETR","REF_FRAME":"TEME","TLE_LINE2":"2 45219  53.0540 140.8749 0002148  76.6409 283.4819 15.06388277 89166"},{"INCLINATION":"53.0532","RCS_SIZE":"LARGE","PERIOD":"91.632","APOAPSIS":"355.251","LAUNCH_DATE":"2020-02-17","BSTAR":"0.00011073000000","FILE":"3117818","OBJECT_ID":"2020-012AU","MEAN_MOTION_DOT":"0.00013885","COUNTRY_CODE":"US","MEAN_MOTION":"15.71510509","CLASSIFICATION_TYPE":"U","OBJECT_TYPE":"PAYLOAD","TLE_LINE1":"1 45220U 20012AU  21260.37945724  .00013885  00000-0  11073-3 0  9990","NORAD_CAT_ID":"45220","DECAY_DATE":null,"RA_OF_ASC_NODE":"134.5683","TIME_SYSTEM":"UTC","EPOCH":"2021-09-17T09:06:25.105536","OBJECT_NAME":"STARLINK-1188","ARG_OF_PERICENTER":"65.1262","CENTER_NAME":"EARTH","GP_ID":"184884762","SITE":"AFETR","REF_FRAME":"TEME","TLE_LINE2":"2 45220  53.0532 134.5683 0000994  65.1262 294.9858 15.71510509 88248","MEAN_ANOMALY":"294.9858","ECCENTRICITY":"0.00009940","ELEMENT_SET_NO":"999","PERIAPSIS":"353.912","MEAN_ELEMENT_THEORY":"SGP4","REV_AT_EPOCH":"8824","SEMIMAJOR_AXIS":"6732.716","EPHEMERIS_TYPE":"0","MEAN_MOTION_DDOT":"0.0000000000000"},{"MEAN_MOTION_DOT":"0.00000997","FILE":"3118116","OBJECT_ID":"2020-012AV","BSTAR":"0.00008582700000","LAUNCH_DATE":"2020-02-17","APOAPSIS":"548.735","RCS_SIZE":"LARGE","PERIOD":"95.593","INCLINATION":"53.0544","DECAY_DATE":null,"NORAD_CAT_ID":"45221","TLE_LINE1":"1 45221U 20012AV  21260.92895698  .00000997  00000-0  85827-4 0  9995","OBJECT_TYPE":"PAYLOAD","CLASSIFICATION_TYPE":"U","MEAN_MOTION":"15.06389026","COUNTRY_CODE":"US","TLE_LINE2":"2 45221  53.0544 140.8588 0002149  80.7634 279.3598 15.06389026 89151","REF_FRAME":"TEME","SITE":"AFETR","GP_ID":"184910656","CENTER_NAME":"EARTH","ARG_OF_PERICENTER":"80.7634","OBJECT_NAME":"STARLINK-1189","EPOCH":"2021-09-17T22:17:41.883072","RA_OF_ASC_NODE":"140.8588","TIME_SYSTEM":"UTC","EPHEMERIS_TYPE":"0","MEAN_MOTION_DDOT":"0.0000000000000","SEMIMAJOR_AXIS":"6925.382","REV_AT_EPOCH":"8915","MEAN_ELEMENT_THEORY":"SGP4","PERIAPSIS":"545.759","ELEMENT_SET_NO":"999","ECCENTRICITY":"0.00021490","MEAN_ANOMALY":"279.3598"},{"LAUNCH_DATE":"2020-02-17","BSTAR":"0.00009620700000","FILE":"3118116","OBJECT_ID":"2020-012AW","MEAN_MOTION_DOT":"0.00001151","INCLINATION":"53.0549","PERIOD":"95.592","RCS_SIZE":"LARGE","APOAPSIS":"548.982","TLE_LINE1":"1 45222U 20012AW  21260.93631483  .00001151  00000-0  96207-4 0  9994","OBJECT_TYPE":"PAYLOAD","DECAY_DATE":null,"NORAD_CAT_ID":"45222","COUNTRY_CODE":"US","MEAN_MOTION":"15.06398452","CLASSIFICATION_TYPE":"U","GP_ID":"184910907","CENTER_NAME":"EARTH","SITE":"AFETR","TLE_LINE2":"2 45222  53.0549 140.8300 0002547  66.2607 293.8649 15.06398452 89151","REF_FRAME":"TEME","RA_OF_ASC_NODE":"140.8300","TIME_SYSTEM":"UTC","OBJECT_NAME":"STARLINK-1191","EPOCH":"2021-09-17T22:28:17.601312","ARG_OF_PERICENTER":"66.2607","SEMIMAJOR_AXIS":"6925.353","EPHEMERIS_TYPE":"0","MEAN_MOTION_DDOT":"0.0000000000000","MEAN_ANOMALY":"293.8649","ECCENTRICITY":"0.00025470","ELEMENT_SET_NO":"999","MEAN_ELEMENT_THEORY":"SGP4","PERIAPSIS":"545.454","REV_AT_EPOCH":"8915"},{"ARG_OF_PERICENTER":"73.3208","OBJECT_NAME":"STARLINK-1212","EPOCH":"2021-09-17T21:24:35.820864","TIME_SYSTEM":"UTC","RA_OF_ASC_NODE":"141.0346","TLE_LINE2":"2 45223  53.0541 141.0346 0002079  73.3208 286.8009 15.06400043 89155","REF_FRAME":"TEME","SITE":"AFETR","GP_ID":"184909655","CENTER_NAME":"EARTH","REV_AT_EPOCH":"8915","MEAN_ELEMENT_THEORY":"SGP4","PERIAPSIS":"545.774","ELEMENT_SET_NO":"999","ECCENTRICITY":"0.00020790","MEAN_ANOMALY":"286.8009","EPHEMERIS_TYPE":"0","MEAN_MOTION_DDOT":"0.0000000000000","SEMIMAJOR_AXIS":"6925.348","APOAPSIS":"548.653","RCS_SIZE":"LARGE","PERIOD":"95.592","INCLINATION":"53.0541","MEAN_MOTION_DOT":"0.00000843","OBJECT_ID":"2020-012AX","FILE":"3118116","BSTAR":"0.00007549300000","LAUNCH_DATE":"2020-02-17","CLASSIFICATION_TYPE":"U","MEAN_MOTION":"15.06400043","COUNTRY_CODE":"US","DECAY_DATE":null,"NORAD_CAT_ID":"45223","TLE_LINE1":"1 45223U 20012AX  21260.89208126  .00000843  00000-0  75493-4 0  9995","OBJECT_TYPE":"PAYLOAD"},{"MEAN_MOTION_DOT":"-0.00000770","LAUNCH_DATE":"2020-02-17","FILE":"3118116","BSTAR":"-0.00000162400000","OBJECT_ID":"2020-012AY","APOAPSIS":"370.549","INCLINATION":"53.0513","RCS_SIZE":"LARGE","PERIOD":"91.838","OBJECT_TYPE":"PAYLOAD","TLE_LINE1":"1 45224U 20012AY  21260.81670374 -.00000770  00000-0 -16240-5 0  9993","NORAD_CAT_ID":"45224","DECAY_DATE":null,"MEAN_MOTION":"15.67975597","CLASSIFICATION_TYPE":"U","COUNTRY_CODE":"US","SITE":"AFETR","REF_FRAME":"TEME","TLE_LINE2":"2 45224  53.0513  94.8005 0008679 286.9056  73.1008 15.67975597 89678","CENTER_NAME":"EARTH","GP_ID":"184909905","ARG_OF_PERICENTER":"286.9056","TIME_SYSTEM":"UTC","RA_OF_ASC_NODE":"94.8005","EPOCH":"2021-09-17T19:36:03.203136","OBJECT_NAME":"STARLINK-1214","EPHEMERIS_TYPE":"0","MEAN_MOTION_DDOT":"0.0000000000000","SEMIMAJOR_AXIS":"6742.832","PERIAPSIS":"358.844","MEAN_ELEMENT_THEORY":"SGP4","REV_AT_EPOCH":"8967","ECCENTRICITY":"0.00086790","MEAN_ANOMALY":"73.1008","ELEMENT_SET_NO":"999"},{"SEMIMAJOR_AXIS":"6925.348","MEAN_MOTION_DDOT":"0.0000000000000","EPHEMERIS_TYPE":"0","MEAN_ANOMALY":"293.5781","ECCENTRICITY":"0.00021760","ELEMENT_SET_NO":"999","PERIAPSIS":"545.706","MEAN_ELEMENT_THEORY":"SGP4","REV_AT_EPOCH":"8902","CENTER_NAME":"EARTH","GP_ID":"184877972","SITE":"AFETR","REF_FRAME":"TEME","TLE_LINE2":"2 45225  53.0538 143.3175 0002176  66.5437 293.5781 15.06400293 89029","RA_OF_ASC_NODE":"143.3175","TIME_SYSTEM":"UTC","EPOCH":"2021-09-17T09:06:48.762720","OBJECT_NAME":"STARLINK-1215","ARG_OF_PERICENTER":"66.5437","OBJECT_TYPE":"PAYLOAD","TLE_LINE1":"1 45225U 20012AZ  21260.37973105  .00001028  00000-0  87941-4 0  9993","NORAD_CAT_ID":"45225","DECAY_DATE":null,"COUNTRY_CODE":"US","MEAN_MOTION":"15.06400293","CLASSIFICATION_TYPE":"U","LAUNCH_DATE":"2020-02-17","OBJECT_ID":"2020-012AZ","FILE":"3117657","BSTAR":"0.00008794100000","MEAN_MOTION_DOT":"0.00001028","INCLINATION":"53.0538","RCS_SIZE":"LARGE","PERIOD":"95.592","APOAPSIS":"548.720"},{"COUNTRY_CODE":"US","MEAN_MOTION":"15.06391793","CLASSIFICATION_TYPE":"U","OBJECT_TYPE":"PAYLOAD","TLE_LINE1":"1 45226U 20012BA  21260.38712204 -.00000551  00000-0 -18043-4 0  9995","NORAD_CAT_ID":"45226","DECAY_DATE":null,"INCLINATION":"53.0542","RCS_SIZE":"LARGE","PERIOD":"95.593","APOAPSIS":"548.922","LAUNCH_DATE":"2020-02-17","FILE":"3117819","BSTAR":"-0.00001804300000","OBJECT_ID":"2020-012BA","MEAN_MOTION_DOT":"-0.00000551","ECCENTRICITY":"0.00024300","MEAN_ANOMALY":"288.4277","ELEMENT_SET_NO":"999","PERIAPSIS":"545.556","MEAN_ELEMENT_THEORY":"SGP4","REV_AT_EPOCH":"8810","SEMIMAJOR_AXIS":"6925.374","MEAN_MOTION_DDOT":"0.0000000000000","EPHEMERIS_TYPE":"0","RA_OF_ASC_NODE":"143.2881","TIME_SYSTEM":"UTC","EPOCH":"2021-09-17T09:17:27.344256","OBJECT_NAME":"STARLINK-1217","ARG_OF_PERICENTER":"71.6976","CENTER_NAME":"EARTH","GP_ID":"184885102","SITE":"AFETR","REF_FRAME":"TEME","TLE_LINE2":"2 45226  53.0542 143.2881 0002430  71.6976 288.4277 15.06391793 88101"}];
